DRAGONFLY               
1 65729U 98067XH  26019.16747573  .00543896  12862-3  15203-2 0  9997
2 65729  51.6184 301.6176 0007962 143.4296 216.7256 15.93020939 19081
1998-067XK              
1 65731U 98067XK  26019.16061299  .00155068  00000+0  10084-2 0  9993
2 65731  51.6272 306.1591 0004649 107.8526 252.2980 15.74934573 19022
RSP-03                  
1 65732U 98067XL  26019.49908863  .00257901  00000+0  11931-2 0  9998
2 65732  51.6242 302.3833 0005652 123.0141 237.1406 15.82194434 19113
GHS-01                  
1 65733U 98067XM  26019.13649771  .02101865  47330-2  16912-2 0  9993
2 65733  51.6184 299.1298 0007468 175.9019 184.2060 16.14745493 19126
YOTSUBA-KULOVER         
1 65941U 98067XN  26019.19468632  .00098446  00000+0  95424-3 0  9999
2 65941  51.6288 310.9023 0004304 127.8963 232.2422 15.65565283 15719
BOTAN                   
1 65942U 98067XP  26019.20265850  .00186622  00000+0  13086-2 0  9996
2 65942  51.6262 308.6903 0005018 131.6074 228.5355 15.73080805 15749
E-KAGAKU-1              
1 65943U 98067XQ  26019.51380743  .00097125  00000+0  94055-3 0  9995
2 65943  51.6300 309.2914 0002887 132.5867 227.5372 15.65599939 15767
HRC MONOBLOCK CAMERA    
1 66052U 98067XR  26019.23357276  .00044906  00000+0  61403-3 0  9991
2 66052  51.6308 314.1639 0000947  22.3835 337.7198 15.56974945 14675
HTV-X1                  
1 66174U 25241A   26019.53011892  .00012910  00000+0  23849-3 0  9996
2 66174  51.6334 315.3913 0007805  35.9319 324.2193 15.49410172   517
SZ-21 MODULE            
1 66515U 25246C   26019.41507697  .00031868  00000+0  32055-3 0  9992
2 66515  41.4760 145.8311 0002734 203.2417 156.8300 15.64747704 10341
SHENZHOU-22             
1 66645U 25272A   26019.03903266  .00021178  00000+0  25083-3 0  9991
2 66645  41.4662 149.9978 0010928 313.3598  46.6329 15.60669378267647
SOYUZ-MS 28             
1 66664U 25275A   26019.53011892  .00012910  00000+0  23849-3 0  9997
2 66664  51.6334 315.3913 0007805  35.9319 324.2193 15.49410172  1286
